[{"OBJECT_NAME":"GAOFEN-9 05","OBJECT_ID":"2020-058A","EPOCH":"2026-03-10T00:01:50.876256","MEAN_MOTION":15.30293976,"ECCENTRICITY":0.0010522,"INCLINATION":97.2228,"RA_OF_ASC_NODE":111.963,"ARG_OF_PERICENTER":91.0204,"MEAN_ANOMALY":269.2242,"EPHEMERIS_TYPE":0,"CLASSIFICATION_TYPE":"U","NORAD_CAT_ID":46232,"ELEMENT_SET_NO":999,"REV_AT_EPOCH":30843,"BSTAR":0.00025120304,"MEAN_MOTION_DOT":7.299e-5,"MEAN_MOTION_DDOT":0},{"OBJECT_NAME":"STARLINK-34868","OBJECT_ID":"2025-210AC","EPOCH":"2026-03-09T23:23:43.151136","MEAN_MOTION":15.30210745,"ECCENTRICITY":0.0001607,"INCLINATION":53.1624,"RA_OF_ASC_NODE":305.8244,"ARG_OF_PERICENTER":113.3533,"MEAN_ANOMALY":246.7637,"EPHEMERIS_TYPE":0,"CLASSIFICATION_TYPE":"U","NORAD_CAT_ID":65648,"ELEMENT_SET_NO":999,"REV_AT_EPOCH":2777,"BSTAR":0.0020620157,"MEAN_MOTION_DOT":0.00061237,"MEAN_MOTION_DDOT":0}]
